H1 CPF 01  gfz 2021 05 18 00  6381 tandemx   
H2 1003001  6202 36605    2021 05 18 00 59 42 2021 05 23 00 00 42   120 1 1  0 0 0
H9
10 0 59353  33102.000000  0    2499684.627  -3748226.799  -5219034.513
10 0 59353  33222.000000  0    1925287.199  -3271739.476  -5755815.007
10 0 59353  33342.000000  0    1326411.512  -2728220.232  -6192020.713
10 0 59353  33462.000000  0     714561.940  -2126812.299  -6520121.202
10 0 59353  33582.000000  0     101276.711  -1477840.752  -6734465.416
10 0 59353  33702.000000  0    -502085.908   -792634.277  -6831368.294
10 0 59353  33822.000000  0   -1084552.287    -83329.845  -6809166.358
10 0 59353  33942.000000  0   -1635728.221    637337.265  -6668242.598
10 0 59353  34062.000000  0   -2145980.061   1356256.020  -6411020.218
10 0 59353  34182.000000  0   -2606599.153   2060172.149  -6041925.509
10 0 59353  34302.000000  0   -3009949.197   2735926.943  -5567320.609
10 0 59353  34422.000000  0   -3349593.919   3370700.866  -4995405.406
10 0 59353  34542.000000  0   -3620403.746   3952257.141  -4336087.687
10 0 59353  34662.000000  0   -3818637.773   4469180.486  -3600821.190
10 0 59353  34782.000000  0   -3941997.851   4911105.258  -2802414.604
10 0 59353  34902.000000  0   -3989655.584   5268928.944  -1954815.162
10 0 59353  35022.000000  0   -3962251.609   5535006.495  -1072868.065
10 0 59353  35142.000000  0   -3861864.841   5703320.676   -172054.374
10 0 59353  35262.000000  0   -3691951.489   5769620.145    731786.356
10 0 59353  35382.000000  0   -3457256.875   5731524.275   1622742.347
10 0 59353  35502.000000  0   -3163699.472   5588591.144   2485120.325
10 0 59353  35622.000000  0   -2818230.067   5342343.687   3303731.824
10 0 59353  35742.000000  0   -2428671.925   4996255.852   4064166.692
10 0 59353  35862.000000  0   -2003545.796   4555700.656   4753050.736
10 0 59353  35982.000000  0   -1551884.410   4027860.750   5358282.501
10 0 59353  36102.000000  0   -1083039.911   3421603.516   5869245.009
10 0 59353  36222.000000  0    -606489.881   2747323.921   6276987.550
10 0 59353  36342.000000  0    -131646.252   2016759.589   6574376.272
10 0 59353  36462.000000  0     332329.450   1242782.829   6756213.226
10 0 59353  36582.000000  0     776702.312    439170.877   6819321.985
10 0 59353  36702.000000  0    1193327.407   -379639.141   6762598.863
10 0 59353  36822.000000  0    1574798.275  -1198808.809   6587032.177
10 0 59353  36942.000000  0    1914578.645  -2003366.906   6295686.184
10 0 59353  37062.000000  0    2207115.114  -2778482.994   5893651.825
10 0 59353  37182.000000  0    2447929.407  -3509742.756   5387963.039
10 0 59353  37302.000000  0    2633687.947  -4183419.190   4787478.809
10 0 59353  37422.000000  0    2762247.868  -4786735.057   4102733.884
10 0 59353  37542.000000  0    2832679.530  -5308112.341   3345757.525
10 0 59353  37662.000000  0    2845263.169  -5737402.332   2529863.694
10 0 59353  37782.000000  0    2801459.928  -6066091.445   1669414.896
10 0 59353  37902.000000  0    2703857.299  -6287475.317    779564.952
10 0 59353  38022.000000  0    2556092.318  -6396799.807   -124013.021
10 0 59353  38142.000000  0    2362752.603  -6391365.016  -1025411.426
10 0 59353  38262.000000  0    2129256.885  -6270585.915  -1908778.715
10 0 59353  38382.000000  0    1861719.101  -6036010.666  -2758605.474
10 0 59353  38502.000000  0    1566798.871  -5691296.195  -3560004.301
10 0 59353  38622.000000  0    1251543.524  -5242138.825  -4298971.962
10 0 59353  38742.000000  0     923227.638  -4696168.385  -4962632.083
10 0 59353  38862.000000  0     589191.416  -4062806.921  -5539453.807
10 0 59353  38982.000000  0     256682.268  -3353095.853  -6019443.823
10 0 59353  39102.000000  0     -67297.020  -2579495.474  -6394308.633
10 0 59353  39222.000000  0    -376130.469  -1755661.872  -6657586.154
10 0 59353  39342.000000  0    -663719.052   -896205.531  -6804746.290
10 0 59353  39462.000000  0    -924596.453    -16434.926  -6833260.950
10 0 59353  39582.000000  0   -1154029.515    867910.885  -6742641.557
10 0 59353  39702.000000  0   -1348101.961   1740936.210  -6534446.128
10 0 59353  39822.000000  0   -1503779.712   2586867.018  -6212255.126
10 0 59353  39942.000000  0   -1618957.823   3390330.016  -5781618.213
10 0 59353  40062.000000  0   -1692488.237   4136629.804  -5249968.390
10 0 59353  40182.000000  0   -1724187.404   4812018.338  -4626505.526
10 0 59353  40302.000000  0   -1714824.222   5403953.452  -3922048.057
10 0 59353  40422.000000  0   -1666087.247   5901339.179  -3148853.952
10 0 59353  40542.000000  0   -1580531.576   6294742.962  -2320414.621
10 0 59353  40662.000000  0   -1461507.177   6576586.482  -1451223.710
10 0 59353  40782.000000  0   -1313069.137   6741302.720   -556523.091
10 0 59353  40902.000000  0   -1139872.296   6785456.185    347966.835
10 0 59353  41022.000000  0    -947051.936   6707823.308   1246330.625
10 0 59353  41142.000000  0    -740094.233   6509426.328   2122749.048
10 0 59353  41262.000000  0    -524699.379   6193519.051   2961786.864
10 0 59353  41382.000000  0    -306641.372   5765529.281   3748670.953
10 0 59353  41502.000000  0     -91628.658   5232960.175   4469555.149
10 0 59353  41622.000000  0     114832.028   4605249.849   5111770.530
10 0 59353  41742.000000  0     307566.223   3893590.109   5664045.452
10 0 59353  41862.000000  0     481851.369   3110720.298   6116699.400
10 0 59353  41982.000000  0     633523.734   2270690.632   6461808.895
10 0 59353  42102.000000  0     759070.747   1388604.434   6693339.824
10 0 59353  42222.000000  0     855707.201    480342.839   6807247.218
10 0 59353  42342.000000  0     921433.877   -437721.399   6801540.723
10 0 59353  42462.000000  0     955077.659  -1349018.092   6676318.495
10 0 59353  42582.000000  0     956312.462  -2237078.711   6433766.058
10 0 59353  42702.000000  0     925660.699  -3085834.383   6078121.229
10 0 59353  42822.000000  0     864474.630  -3879909.166   5615603.371
10 0 59353  42942.000000  0     774899.042  -4604900.289   5054308.750
10 0 59353  43062.000000  0     659816.375  -5247643.535   4404075.647
10 0 59353  43182.000000  0     522774.217  -5796461.086   3676318.219
10 0 59353  43302.000000  0     367896.040  -6241384.381   2883828.646
10 0 59353  43422.000000  0     199777.554  -6574345.476   2040551.770
10 0 59353  43542.000000  0      23370.810  -6789331.959   1161337.078
10 0 59353  43662.000000  0    -156140.558  -6882504.573    261672.272
10 0 59353  43782.000000  0    -333473.148  -6852270.673   -642599.474
10 0 59353  43902.000000  0    -503377.478  -6699310.113  -1535568.582
10 0 59353  44022.000000  0    -660770.405  -6426555.166  -2401546.899
10 0 59353  44142.000000  0    -800863.374  -6039127.057  -3225349.323
10 0 59353  44262.000000  0    -919283.554  -5544229.583  -3992564.360
10 0 59353  44382.000000  0   -1012184.407  -4951002.100  -4689806.933
10 0 59353  44502.000000  0   -1076343.108  -4270337.772  -5304947.450
10 0 59353  44622.000000  0   -1109243.013  -3514672.839  -5827315.278
10 0 59353  44742.000000  0   -1109139.308  -2697751.237  -6247874.166
10 0 59353  44862.000000  0   -1075106.994  -1834369.398  -6559367.447
10 0 59353  44982.000000  0   -1007070.686   -940107.162  -6756431.473
10 0 59353  45102.000000  0    -905816.210    -31049.478  -6835678.397
10 0 59353  45222.000000  0    -772982.907    876497.625  -6795747.279
10 0 59353  45342.000000  0    -611037.241   1766291.651  -6637324.330
10 0 59353  45462.000000  0    -423228.904   2622436.569  -6363132.431
10 0 59353  45582.000000  0    -213529.125   3429660.771  -5977890.868
10 0 59353  45702.000000  0      13448.834   4173587.449  -5488243.204
10 0 59353  45822.000000  0     252544.869   4840990.572  -4902653.019
10 0 59353  45942.000000  0     498161.265   5420034.696  -4231269.693
10 0 59353  46062.000000  0     744384.778   5900493.452  -3485762.709
10 0 59353  46182.000000  0     985119.064   6273940.744  -2679126.843
10 0 59353  46302.000000  0    1214224.714   6533911.090  -1825460.915
10 0 59353  46422.000000  0    1425663.834   6676024.495   -939722.376
10 0 59353  46542.000000  0    1613645.794   6698071.391    -37462.105
10 0 59353  46662.000000  0    1772769.970   6600053.817    865454.974
10 0 59353  46782.000000  0    1898161.134   6384182.521   1753136.201
10 0 59353  46902.000000  0    1985595.195   6054830.396   2609948.942
10 0 59353  47022.000000  0    2031611.726   5618442.851   3420803.646
10 0 59353  47142.000000  0    2033610.223   5083407.504   4171427.229
10 0 59353  47262.000000  0    1989926.774   4459885.012   4848619.860
10 0 59353  47382.000000  0    1899890.616   3759604.528   5440489.381
10 0 59353  47502.000000  0    1763858.153   2995633.477   5936655.728
10 0 59353  47622.000000  0    1583226.034   2182127.734   6328428.893
10 0 59353  47742.000000  0    1360421.391   1334063.376   6608956.519
10 0 59353  47862.000000  0    1098870.090    466956.557   6773337.076
10 0 59353  47982.000000  0     802943.926   -403420.479   6818699.194
10 0 59353  48102.000000  0     477887.440  -1261325.283   6744250.374
10 0 59353  48222.000000  0     129724.733  -2091330.365   6551290.424
10 0 59353  48342.000000  0    -234852.279  -2878600.814   6243190.160
10 0 59353  48462.000000  0    -608611.412  -3609161.004   5825334.484
10 0 59353  48582.000000  0    -983920.716  -4270143.217   5305031.970
10 0 59353  48702.000000  0   -1352901.228  -4850017.726   4691395.345
10 0 59353  48822.000000  0   -1707590.999  -5338802.611   3995189.606
10 0 59353  48942.000000  0   -2040115.114  -5728245.990   3228646.315
10 0 59353  49062.000000  0   -2342858.205  -6011974.072   2405248.696
10 0 59353  49182.000000  0   -2608635.284  -6185602.584   1539492.481
10 0 59353  49302.000000  0   -2830856.234  -6246809.858    646625.880
10 0 59353  49422.000000  0   -3003680.191  -6195368.767   -257626.147
10 0 59353  49542.000000  0   -3122155.755  -6033136.462  -1157347.421
99
